start=new Date('2022-09-03T00:00:00.000Z').valueOf();
sats=[{"TIME_SYSTEM":"UTC","APOAPSIS":"548.122","PERIOD":"95.593","RCS_SIZE":"LARGE","ARG_OF_PERICENTER":"94.3064","OBJECT_NAME":"STARLINK-1755","OBJECT_ID":"2020-070BM","INCLINATION":"53.0543","MEAN_MOTION_DDOT":"0.0000000000000","LAUNCH_DATE":"2020-10-06","ELEMENT_SET_NO":"999","BSTAR":"0.00007188500000","SEMIMAJOR_AXIS":"6925.385","FILE":"3555599","EPHEMERIS_TYPE":"0","SITE":"AFETR","MEAN_MOTION_DOT":"0.00000789","MEAN_ELEMENT_THEORY":"SGP4","EPOCH":"2022-09-02T18:23:06.399456","NORAD_CAT_ID":"46591","CLASSIFICATION_TYPE":"U","ECCENTRICITY":"0.00012590","TLE_LINE2":"2 46591  53.0543 160.3793 0001259  94.3064 265.8069 15.06388148105320","REV_AT_EPOCH":"10532","PERIAPSIS":"546.378","OBJECT_TYPE":"PAYLOAD","GP_ID":"211586533","COUNTRY_CODE":"US","MEAN_ANOMALY":"265.8069","RA_OF_ASC_NODE":"160.3793","DECAY_DATE":null,"REF_FRAME":"TEME","TLE_LINE1":"1 46591U 20070BM  22245.76604629  .00000789  00000-0  71885-4 0  9996","CENTER_NAME":"EARTH","MEAN_MOTION":"15.06388148"},{"DECAY_DATE":null,"RA_OF_ASC_NODE":"252.5821","MEAN_ANOMALY":"294.9589","COUNTRY_CODE":"US","OBJECT_TYPE":"PAYLOAD","GP_ID":"211555502","PERIAPSIS":"546.016","REV_AT_EPOCH":"10347","MEAN_MOTION":"15.06393854","CENTER_NAME":"EARTH","TLE_LINE1":"1 46671U 20073B   22245.33022728  .00000151  00000-0  29040-4 0  9994","REF_FRAME":"TEME","SITE":"AFETR","EPHEMERIS_TYPE":"0","FILE":"3555279","TLE_LINE2":"2 46671  53.0545 252.5821 0001756  65.1582 294.9589 15.06393854103474","ECCENTRICITY":"0.00017560","CLASSIFICATION_TYPE":"U","MEAN_ELEMENT_THEORY":"SGP4","EPOCH":"2022-09-02T07:55:31.636992","NORAD_CAT_ID":"46671","MEAN_MOTION_DOT":"0.00000151","ELEMENT_SET_NO":"999","LAUNCH_DATE":"2020-10-18","MEAN_MOTION_DDOT":"0.0000000000000","SEMIMAJOR_AXIS":"6925.367","BSTAR":"0.00002904000000","ARG_OF_PERICENTER":"65.1582","RCS_SIZE":"LARGE","PERIOD":"95.593","APOAPSIS":"548.448","TIME_SYSTEM":"UTC","INCLINATION":"53.0545","OBJECT_NAME":"STARLINK-1715","OBJECT_ID":"2020-073B"},{"SITE":"AFETR","FILE":"3555279","EPHEMERIS_TYPE":"0","TLE_LINE2":"2 46672  53.0543 246.9706 0001708  67.7355 292.3815 15.06393934103568","CLASSIFICATION_TYPE":"U","ECCENTRICITY":"0.00017080","EPOCH":"2022-09-02T09:55:33.814848","NORAD_CAT_ID":"46672","MEAN_ELEMENT_THEORY":"SGP4","MEAN_MOTION_DOT":"0.00001925","MEAN_ANOMALY":"292.3815","RA_OF_ASC_NODE":"246.9706","DECAY_DATE":null,"COUNTRY_CODE":"US","PERIAPSIS":"546.049","REV_AT_EPOCH":"10356","OBJECT_TYPE":"PAYLOAD","GP_ID":"211556754","MEAN_MOTION":"15.06393934","CENTER_NAME":"EARTH","REF_FRAME":"TEME","TLE_LINE1":"1 46672U 20073C   22245.41358582  .00001925  00000-0  14813-3 0  9995","ARG_OF_PERICENTER":"67.7355","RCS_SIZE":"LARGE","APOAPSIS":"548.415","TIME_SYSTEM":"UTC","PERIOD":"95.593","INCLINATION":"53.0543","OBJECT_NAME":"STARLINK-1716","OBJECT_ID":"2020-073C","ELEMENT_SET_NO":"999","LAUNCH_DATE":"2020-10-18","MEAN_MOTION_DDOT":"0.0000000000000","SEMIMAJOR_AXIS":"6925.367","BSTAR":"0.00014813000000"},{"TIME_SYSTEM":"UTC","APOAPSIS":"548.209","PERIOD":"95.592","RCS_SIZE":"LARGE","ARG_OF_PERICENTER":"79.1440","OBJECT_NAME":"STARLINK-1717","OBJECT_ID":"2020-073D","INCLINATION":"53.0529","MEAN_MOTION_DDOT":"0.0000000000000","LAUNCH_DATE":"2020-10-18","ELEMENT_SET_NO":"999","BSTAR":"0.00000535310000","SEMIMAJOR_AXIS":"6925.362","FILE":"3555599","EPHEMERIS_TYPE":"0","SITE":"AFETR","MEAN_MOTION_DOT":"-0.00000202","EPOCH":"2022-09-02T12:40:47.213472","MEAN_ELEMENT_THEORY":"SGP4","NORAD_CAT_ID":"46673","CLASSIFICATION_TYPE":"U","ECCENTRICITY":"0.00014170","TLE_LINE2":"2 46673  53.0529 261.5623 0001417  79.1440 280.9708 15.06395508103364","REV_AT_EPOCH":"10336","PERIAPSIS":"546.246","OBJECT_TYPE":"PAYLOAD","GP_ID":"211587539","COUNTRY_CODE":"US","MEAN_ANOMALY":"280.9708","RA_OF_ASC_NODE":"261.5623","DECAY_DATE":null,"REF_FRAME":"TEME","TLE_LINE1":"1 46673U 20073D   22245.52832423 -.00000202  00000-0  53531-5 0  9999","CENTER_NAME":"EARTH","MEAN_MOTION":"15.06395508"},{"SEMIMAJOR_AXIS":"6925.348","BSTAR":"0.00004384900000","MEAN_MOTION_DDOT":"0.0000000000000","LAUNCH_DATE":"2020-10-18","ELEMENT_SET_NO":"999","OBJECT_ID":"2020-073E","OBJECT_NAME":"STARLINK-1718","INCLINATION":"53.0528","RCS_SIZE":"LARGE","TIME_SYSTEM":"UTC","APOAPSIS":"548.241","PERIOD":"95.592","ARG_OF_PERICENTER":"71.6765","CENTER_NAME":"EARTH","REF_FRAME":"TEME","TLE_LINE1":"1 46674U 20073E   22245.30668441  .00000372  00000-0  43849-4 0  9990","MEAN_MOTION":"15.06400235","REV_AT_EPOCH":"10354","PERIAPSIS":"546.184","GP_ID":"211555753","OBJECT_TYPE":"PAYLOAD","MEAN_ANOMALY":"288.4385","RA_OF_ASC_NODE":"247.4382","DECAY_DATE":null,"COUNTRY_CODE":"US","MEAN_ELEMENT_THEORY":"SGP4","EPOCH":"2022-09-02T07:21:37.533024","NORAD_CAT_ID":"46674","MEAN_MOTION_DOT":"0.00000372","TLE_LINE2":"2 46674  53.0528 247.4382 0001485  71.6765 288.4385 15.06400235103549","CLASSIFICATION_TYPE":"U","ECCENTRICITY":"0.00014850","SITE":"AFETR","FILE":"3555279","EPHEMERIS_TYPE":"0"},{"RCS_SIZE":"LARGE","PERIOD":"95.593","APOAPSIS":"548.394","TIME_SYSTEM":"UTC","ARG_OF_PERICENTER":"65.6408","OBJECT_ID":"2020-073F","OBJECT_NAME":"STARLINK-1720","INCLINATION":"53.0531","MEAN_MOTION_DDOT":"0.0000000000000","LAUNCH_DATE":"2020-10-18","ELEMENT_SET_NO":"999","SEMIMAJOR_AXIS":"6925.380","BSTAR":"0.00000181740000","SITE":"AFETR","EPHEMERIS_TYPE":"0","FILE":"3555279","EPOCH":"2022-09-02T07:16:19.941312","MEAN_ELEMENT_THEORY":"SGP4","NORAD_CAT_ID":"46675","MEAN_MOTION_DOT":"-0.00000254","TLE_LINE2":"2 46675  53.0531 247.4599 0001659  65.6408 294.4754 15.06389600103543","ECCENTRICITY":"0.00016590","CLASSIFICATION_TYPE":"U","GP_ID":"211556003","OBJECT_TYPE":"PAYLOAD","REV_AT_EPOCH":"10354","PERIAPSIS":"546.097","RA_OF_ASC_NODE":"247.4599","DECAY_DATE":null,"MEAN_ANOMALY":"294.4754","COUNTRY_CODE":"US","CENTER_NAME":"EARTH","REF_FRAME":"TEME","TLE_LINE1":"1 46675U 20073F   22245.30300858 -.00000254  00000-0  18174-5 0  9990","MEAN_MOTION":"15.06389600"},{"GP_ID":"211556254","OBJECT_TYPE":"PAYLOAD","REV_AT_EPOCH":"10356","PERIAPSIS":"546.372","COUNTRY_CODE":"US","DECAY_DATE":null,"RA_OF_ASC_NODE":"246.8757","MEAN_ANOMALY":"285.0134","TLE_LINE1":"1 46677U 20073H   22245.43201407 -.00000740  00000-0 -30803-4 0  9999","REF_FRAME":"TEME","CENTER_NAME":"EARTH","MEAN_MOTION":"15.06389160","EPHEMERIS_TYPE":"0","FILE":"3555279","SITE":"AFETR","MEAN_MOTION_DOT":"-0.00000740","MEAN_ELEMENT_THEORY":"SGP4","NORAD_CAT_ID":"46677","EPOCH":"2022-09-02T10:22:06.015648","ECCENTRICITY":"0.00012630","CLASSIFICATION_TYPE":"U","TLE_LINE2":"2 46677  53.0537 246.8757 0001263  75.0995 285.0134 15.06389160103568","MEAN_MOTION_DDOT":"0.0000000000000","LAUNCH_DATE":"2020-10-18","ELEMENT_SET_NO":"999","BSTAR":"-0.00003080300000","SEMIMAJOR_AXIS":"6925.382","PERIOD":"95.593","APOAPSIS":"548.121","TIME_SYSTEM":"UTC","RCS_SIZE":"LARGE","ARG_OF_PERICENTER":"75.0995","OBJECT_ID":"2020-073H","OBJECT_NAME":"STARLINK-1766","INCLINATION":"53.0537"},{"OBJECT_TYPE":"PAYLOAD","GP_ID":"211587042","PERIAPSIS":"546.026","REV_AT_EPOCH":"10387","COUNTRY_CODE":"US","RA_OF_ASC_NODE":"225.9589","DECAY_DATE":null,"MEAN_ANOMALY":"299.2672","REF_FRAME":"TEME","TLE_LINE1":"1 46679U 20073K   22245.63658072 -.00000115  00000-0  11204-4 0  9996","CENTER_NAME":"EARTH","MEAN_MOTION":"15.06394872","EPHEMERIS_TYPE":"0","FILE":"3555599","SITE":"AFETR","MEAN_MOTION_DOT":"-0.00000115","EPOCH":"2022-09-02T15:16:40.574208","NORAD_CAT_ID":"46679","MEAN_ELEMENT_THEORY":"SGP4","ECCENTRICITY":"0.00017370","CLASSIFICATION_TYPE":"U","TLE_LINE2":"2 46679  53.0531 225.9589 0001737  60.8490 299.2672 15.06394872103877","MEAN_MOTION_DDOT":"0.0000000000000","ELEMENT_SET_NO":"999","LAUNCH_DATE":"2020-10-18","BSTAR":"0.00001120400000","SEMIMAJOR_AXIS":"6925.364","PERIOD":"95.592","TIME_SYSTEM":"UTC","APOAPSIS":"548.432","RCS_SIZE":"LARGE","ARG_OF_PERICENTER":"60.8490","OBJECT_ID":"2020-073K","OBJECT_NAME":"STARLINK-1773","INCLINATION":"53.0531"},{"PERIOD":"95.593","APOAPSIS":"548.337","TIME_SYSTEM":"UTC","RCS_SIZE":"LARGE","ARG_OF_PERICENTER":"71.5597","OBJECT_NAME":"STARLINK-1774","OBJECT_ID":"2020-073L","INCLINATION":"53.0527","MEAN_MOTION_DDOT":"0.0000000000000","ELEMENT_SET_NO":"999","LAUNCH_DATE":"2020-10-18","BSTAR":"0.00013467000000","SEMIMAJOR_AXIS":"6925.381","EPHEMERIS_TYPE":"0","FILE":"3555599","SITE":"AFETR","MEAN_MOTION_DOT":"0.00001724","EPOCH":"2022-09-02T18:31:05.264544","MEAN_ELEMENT_THEORY":"SGP4","NORAD_CAT_ID":"46680","ECCENTRICITY":"0.00015760","CLASSIFICATION_TYPE":"U","TLE_LINE2":"2 46680  53.0527 260.3630 0001576  71.5597 288.5563 15.06389421103405","OBJECT_TYPE":"PAYLOAD","GP_ID":"211587780","PERIAPSIS":"546.155","REV_AT_EPOCH":"10340","COUNTRY_CODE":"US","DECAY_DATE":null,"RA_OF_ASC_NODE":"260.3630","MEAN_ANOMALY":"288.5563","TLE_LINE1":"1 46680U 20073L   22245.77158871  .00001724  00000-0  13467-3 0  9993","REF_FRAME":"TEME","CENTER_NAME":"EARTH","MEAN_MOTION":"15.06389421"},{"TLE_LINE2":"2 46681  53.0541 261.6750 0001488  65.6933 294.4212 15.06404576103359","ECCENTRICITY":"0.00014880","CLASSIFICATION_TYPE":"U","EPOCH":"2022-09-02T11:26:27.094272","MEAN_ELEMENT_THEORY":"SGP4","NORAD_CAT_ID":"46681","MEAN_MOTION_DOT":"0.00002482","SITE":"AFETR","EPHEMERIS_TYPE":"0","FILE":"3555279","MEAN_MOTION":"15.06404576","CENTER_NAME":"EARTH","REF_FRAME":"TEME","TLE_LINE1":"1 46681U 20073M   22245.47670248  .00002482  00000-0  18547-3 0  9994","RA_OF_ASC_NODE":"261.6750","DECAY_DATE":null,"MEAN_ANOMALY":"294.4212","COUNTRY_CODE":"US","OBJECT_TYPE":"PAYLOAD","GP_ID":"211555503","REV_AT_EPOCH":"10335","PERIAPSIS":"546.169","INCLINATION":"53.0541","OBJECT_ID":"2020-073M","OBJECT_NAME":"STARLINK-1775","ARG_OF_PERICENTER":"65.6933","RCS_SIZE":"LARGE","PERIOD":"95.592","APOAPSIS":"548.230","TIME_SYSTEM":"UTC","SEMIMAJOR_AXIS":"6925.335","BSTAR":"0.00018547000000","ELEMENT_SET_NO":"999","LAUNCH_DATE":"2020-10-18","MEAN_MOTION_DDOT":"0.0000000000000"}];
